OBJECT_NAME,OBJECT_ID,EPOCH,MEAN_MOTION,ECCENTRICITY,INCLINATION,RA_OF_ASC_NODE,ARG_OF_PERICENTER,MEAN_ANOMALY,EPHEMERIS_TYPE,CLASSIFICATION_TYPE,NORAD_CAT_ID,ELEMENT_SET_NO,REV_AT_EPOCH,BSTAR,MEAN_MOTION_DOT,MEAN_MOTION_DDOT
ZHONGXING-10R,2025-036A,2026-07-13T19:07:23.991744,1.00272846,.0004148,0.0092,275.1041,232.4565,181.4666,0,U,63075,999,522,0,-.357E-5,0
TJS-15,2025-045A,2026-07-13T17:56:30.408288,1.00269569,.0003351,0.3063,85.6357,295.0634,274.4075,0,U,63157,999,502,0,-.269E-5,0
TIANLIAN 2-04,2025-062A,2026-07-13T21:15:11.361888,1.00270747,.0031624,4.3079,274.0558,9.3169,47.1970,0,U,63361,999,487,0,-.136E-5,0
TJS-16,2025-064A,2026-07-13T18:20:48.606144,1.00270806,.0002489,1.1643,81.2920,290.3397,355.8257,0,U,63397,999,465,0,-.111E-5,0
TJS-17,2025-073A,2026-07-13T18:17:39.505056,1.00270523,.0000992,1.1304,82.4646,303.0552,345.0327,0,U,63524,999,455,0,-.76E-6,0
TIANLIAN 2-05,2025-084A,2026-07-13T18:41:38.154912,1.00270720,.0002569,4.3857,279.5306,153.8442,159.0452,0,U,63662,999,464,0,.124E-5,0
TJS-19,2025-097A,2026-07-13T17:33:28.505088,1.00266719,.0003966,3.2430,317.8726,245.4291,132.8569,0,U,63924,999,441,0,-.278E-5,0
CHINASAT 3B,2025-106A,2026-07-13T19:23:29.948928,1.00271857,.0003909,0.0233,139.4730,5.2216,245.1826,0,U,64062,999,432,0,-.5E-6,0
SXM-10,2025-122A,2026-07-13T14:37:25.836384,1.00271903,.0001828,0.0157,36.2449,322.9748,35.4661,0,U,64290,999,394,0,-.21E-6,0
COSMOS 2589,2025-131A,2026-07-13T17:21:07.191360,1.00273922,.0000927,0.0273,122.3287,83.5150,84.0384,0,U,64467,999,382,0,-.296E-5,0
CHINASAT 9C,2025-132A,2026-07-13T21:07:38.701920,1.00267502,.0002923,0.0155,61.1694,53.9873,225.7177,0,U,64470,999,441,0,0,0
MTG-S1,2025-143A,2026-07-13T20:18:22.582080,1.00273221,.0003484,0.5850,344.7832,261.8262,349.2858,0,U,64723,999,368,0,-.12E-6,0
DROR 1,2025-148A,2026-07-13T20:26:39.039072,1.00271688,.0001975,0.0485,260.6619,134.9500,198.7682,0,U,64784,999,356,0,-.4E-6,0
SHIYAN-29,2025-196A,2026-07-13T14:17:02.359680,1.00276730,.0013367,28.8495,18.2022,177.9193,44.8968,0,U,65486,999,314,0,-.285E-5,0
NUSANTARA LIMA (NUSANTARA 5),2025-205A,2026-07-13T05:26:36.057408,1.00270259,.000046,0.0048,108.0133,92.2195,285.3677,0,U,65588,999,298,0,-.36E-5,0
TJS-20,2025-238A,2026-07-13T20:36:16.318944,1.00274397,.0004283,5.4113,299.4463,181.7914,182.0051,0,U,66142,999,260,0,.25E-6,0
CMS-03 (GSAT-7R),2025-249B,2026-07-13T21:00:56.560896,1.00271182,.0001451,0.0301,275.0253,164.2446,241.6822,0,U,66311,999,261,0,-.82E-6,0
VIASAT-3 F2,2025-261A,2026-07-13T11:22:43.857408,1.00270985,.00007397,0.0059,252.2572,334.9101,155.8962,0,U,66454,999,305,0,-.237E-5,0
SHIJIAN-28 (SJ-28),2025-277A,2026-07-13T18:44:38.882976,1.00267516,.0001182,4.4713,271.7110,22.6244,35.2978,0,U,66549,999,242,0,-.36E-5,0
TJS-22,2025-290A,2026-07-12T19:22:52.255200,1.00269739,.0002691,1.4677,286.9097,318.9700,42.0235,0,U,66990,999,228,0,-.5E-7,0
TJS-23,2025-306A,2026-07-13T12:42:34.384032,1.00275110,.0005005,5.5291,297.3485,193.5330,166.7139,0,U,67226,999,215,0,.21E-6,0
FENGYUN 4C,2025-312A,2026-07-13T15:48:28.029600,1.00269440,.0000658,0.0385,175.3203,48.7481,77.5697,0,U,67246,999,204,0,-.328E-5,0
SHIJIAN-29A (SJ-29A),2025-315A,2026-07-13T17:14:04.132032,1.00272287,.0004858,3.4630,94.4731,52.7733,116.0145,0,U,67302,999,188,0,-.75E-6,0
SHIJIAN-29B (SJ-29B),2025-315C,2026-07-13T17:14:04.132032,1.00272585,.0004958,3.4620,94.4660,54.1372,114.7040,0,U,67403,999,195,0,-.76E-6,0
ELEKTRO-L 5,2026-028A,2026-07-12T23:32:12.769440,1.00271957,.0002054,0.2103,323.5750,175.8596,220.5701,0,U,67756,999,151,0,-.99E-6,0
JAM-E JAM 1,2026-028B,2026-07-13T18:45:22.760352,1.00273069,.0001722,0.2091,312.1530,321.1936,333.6666,0,U,67757,999,138,0,.151E-5,0
ECHOSTAR 25,2026-045A,2026-07-13T16:21:32.361120,1.00269024,.000164,0.0260,63.7557,46.8586,316.3406,0,U,68126,999,125,0,0,0
TJS-24,2026-116A,2026-07-13T21:21:01.799424,1.00270070,.0000376,0.0742,95.1728,129.2353,117.9048,0,U,69235,999,49,0,-.236E-5,0
